{"type": "FeatureCollection", "features": [ {"type": "Feature", "properties": {"norad_id": 32289, "name": "YAOGAN-3", "group": "resource", "lat": -30.110432585702117, "lon": -159.65401592663366, "alt_km": 604.7317469847121, "timestamp": "2025-12-24T09:46:30.652028+00:00", "meta": {"OBJECT_NAME": "YAOGAN-3", "OBJECT_ID": "2007-055A", "EPOCH": "2025-12-24T05:36:37.963872", "MEAN_MOTION": 14.89909982, "ECCENTRICITY": 0.000122, "INCLINATION": 97.8349, "RA_OF_ASC_NODE": 24.7542, "ARG_OF_PERICENTER": 83.3167, "MEAN_ANOMALY": 276.8189, "EPHEMERIS_TYPE": 0, "CLASSIFICATION_TYPE": "U", "NORAD_CAT_ID": 32289, "ELEMENT_SET_NO": 999, "REV_AT_EPOCH": 97980, "BSTAR": 0.00018415, "MEAN_MOTION_DOT": 1.716e-05, "MEAN_MOTION_DDOT": 0}, "tle": {"line1": "1 32289U 07055A   25358.23377273  .00001716  00000+0  18415-3 0  9994", "line2": "2 32289  97.8349  24.7542 0001220  83.3167 276.8189 14.89909982979806"}}, "geometry": {"type": "Point", "coordinates": [-159.65401592663366, -30.110432585702117]}}, {"type": "Feature", "properties": {"norad_id": 32376, "name": "COSMO-SKYMED 2", "group": "resource", "lat": 14.632275731356865, "lon": 1.6276330506165104, "alt_km": 623.356559743278, "timestamp": "2025-12-24T09:46:30.652040+00:00", "meta": {"OBJECT_NAME": "COSMO-SKYMED 2", "OBJECT_ID": "2007-059A", "EPOCH": "2025-12-24T04:10:19.174656", "MEAN_MOTION": 14.82156104, "ECCENTRICITY": 0.0001311, "INCLINATION": 97.8805, "RA_OF_ASC_NODE": 179.3254, "ARG_OF_PERICENTER": 82.3651, "MEAN_ANOMALY": 277.7711, "EPHEMERIS_TYPE": 0, "CLASSIFICATION_TYPE": "U", "NORAD_CAT_ID": 32376, "ELEMENT_SET_NO": 999, "REV_AT_EPOCH": 97607, "BSTAR": 7.3667e-05, "MEAN_MOTION_DOT": 5.34e-06, "MEAN_MOTION_DDOT": 0}, "tle": {"line1": "1 32376U 07059A   25358.17383304  .00000534  00000+0  73667-4 0  9998", "line2": "2 32376  97.8805 179.3254 0001311  82.3651 277.7711 14.82156104976075"}}, "geometry": {"type": "Point", "coordinates": [1.6276330506165104, 14.632275731356865]}}, {"type": "Feature", "properties": {"norad_id": 32382, "name": "RADARSAT-2", "group": "resource", "lat": 80.70474056114838, "lon": -64.44544862108324, "alt_km": 783.5297727012721, "timestamp": "2025-12-24T09:46:30.652051+00:00", "meta": {"OBJECT_NAME": "RADARSAT-2", "OBJECT_ID": "2007-061A", "EPOCH": "2025-12-24T04:20:05.047008", "MEAN_MOTION": 14.29985158, "ECCENTRICITY": 0.0001134, "INCLINATION": 98.5793, "RA_OF_ASC_NODE": 2.6042, "ARG_OF_PERICENTER": 85.4136, "MEAN_ANOMALY": 274.7176, "EPHEMERIS_TYPE": 0, "CLASSIFICATION_TYPE": "U", "NORAD_CAT_ID": 32382, "ELEMENT_SET_NO": 999, "REV_AT_EPOCH": 94094, "BSTAR": 8.5489e-05, "MEAN_MOTION_DOT": 1.77e-06, "MEAN_MOTION_DDOT": 0}, "tle": {"line1": "1 32382U 07061A   25358.18061397  .00000177  00000+0  85489-4 0  9992", "line2": "2 32382  98.5793   2.6042 0001134  85.4136 274.7176 14.29985158940943"}}, "geometry": {"type": "Point", "coordinates": [-64.44544862108324, 80.70474056114838]}}, {"type": "Feature", "properties": {"norad_id": 32783, "name": "CARTOSAT-2A", "group": "resource", "lat": 9.651851087209685, "lon": -130.80028353890722, "alt_km": 641.3422631142448, "timestamp": "2025-12-24T09:46:30.652062+00:00", "meta": {"OBJECT_NAME": "CARTOSAT-2A", "OBJECT_ID": "2008-021A", "EPOCH": "2025-12-24T04:08:11.350176", "MEAN_MOTION": 14.78951469, "ECCENTRICITY": 0.0011001, "INCLINATION": 97.7911, "RA_OF_ASC_NODE": 47.6379, "ARG_OF_PERICENTER": 326.5596, "MEAN_ANOMALY": 33.492, "EPHEMERIS_TYPE": 0, "CLASSIFICATION_TYPE": "U", "NORAD_CAT_ID": 32783, "ELEMENT_SET_NO": 999, "REV_AT_EPOCH": 95293, "BSTAR": 0.0001135, "MEAN_MOTION_DOT": 7.88e-06, "MEAN_MOTION_DDOT": 0}, "tle": {"line1": "1 32783U 08021A   25358.17235359  .00000788  00000+0  11350-3 0  9997", "line2": "2 32783  97.7911  47.6379 0011001 326.5596  33.4920 14.78951469952937"}}, "geometry": {"type": "Point", "coordinates": [-130.80028353890722, 9.651851087209685]}}, {"type": "Feature", "properties": {"norad_id": 33320, "name": "HUANJING 1A (HJ-1A)", "group": "resource", "lat": -42.24145071220806, "lon": 159.20383756046195, "alt_km": 634.6505607270456, "timestamp": "2025-12-24T09:46:30.652072+00:00", "meta": {"OBJECT_NAME": "HUANJING 1A (HJ-1A)", "OBJECT_ID": "2008-041A", "EPOCH": "2025-12-24T05:32:10.214592", "MEAN_MOTION": 14.83428451, "ECCENTRICITY": 0.0019302, "INCLINATION": 97.6547, "RA_OF_ASC_NODE": 346.0494, "ARG_OF_PERICENTER": 357.8754, "MEAN_ANOMALY": 2.2375, "EPHEMERIS_TYPE": 0, "CLASSIFICATION_TYPE": "U", "NORAD_CAT_ID": 33320, "ELEMENT_SET_NO": 999, "REV_AT_EPOCH": 93246, "BSTAR": 0.00018291, "MEAN_MOTION_DOT": 1.455e-05, "MEAN_MOTION_DDOT": 0}, "tle": {"line1": "1 33320U 08041A   25358.23067378  .00001455  00000+0  18291-3 0  9991", "line2": "2 33320  97.6547 346.0494 0019302 357.8754   2.2375 14.83428451932468"}}, "geometry": {"type": "Point", "coordinates": [159.20383756046195, -42.24145071220806]}}, {"type": "Feature", "properties": {"norad_id": 33321, "name": "HUANJING 1B (HJ-1B)", "group": "resource", "lat": 58.92757548254456, "lon": -22.986381293731608, "alt_km": 589.9742265493833, "timestamp": "2025-12-24T09:46:30.652084+00:00", "meta": {"OBJECT_NAME": "HUANJING 1B (HJ-1B)", "OBJECT_ID": "2008-041B", "EPOCH": "2025-12-24T04:38:59.751168", "MEAN_MOTION": 14.82849563, "ECCENTRICITY": 0.0037797, "INCLINATION": 97.6402, "RA_OF_ASC_NODE": 349.6809, "ARG_OF_PERICENTER": 39.3955, "MEAN_ANOMALY": 320.9997, "EPHEMERIS_TYPE": 0, "CLASSIFICATION_TYPE": "U", "NORAD_CAT_ID": 33321, "ELEMENT_SET_NO": 999, "REV_AT_EPOCH": 93247, "BSTAR": 0.00018216, "MEAN_MOTION_DOT": 1.441e-05, "MEAN_MOTION_DDOT": 0}, "tle": {"line1": "1 33321U 08041B   25358.19374712  .00001441  00000+0  18216-3 0  9992", "line2": "2 33321  97.6402 349.6809 0037797  39.3955 320.9997 14.82849563932472"}}, "geometry": {"type": "Point", "coordinates": [-22.986381293731608, 58.92757548254456]}}, {"type": "Feature", "properties": {"norad_id": 33331, "name": "GEOEYE 1", "group": "resource", "lat": 6.74612081113869, "lon": 68.57217181062258, "alt_km": 681.4707197450298, "timestamp": "2025-12-24T09:46:30.652094+00:00", "meta": {"OBJECT_NAME": "GEOEYE 1", "OBJECT_ID": "2008-042A", "EPOCH": "2025-12-24T03:11:09.784896", "MEAN_MOTION": 14.64714943, "ECCENTRICITY": 0.0002956, "INCLINATION": 98.1238, "RA_OF_ASC_NODE": 69.2693, "ARG_OF_PERICENTER": 235.2987, "MEAN_ANOMALY": 124.7938, "EPHEMERIS_TYPE": 0, "CLASSIFICATION_TYPE": "U", "NORAD_CAT_ID": 33331, "ELEMENT_SET_NO": 999, "REV_AT_EPOCH": 92452, "BSTAR": 0.00011704, "MEAN_MOTION_DOT": 5.76e-06, "MEAN_MOTION_DDOT": 0}, "tle": {"line1": "1 33331U 08042A   25358.13275214  .00000576  00000+0  11704-3 0  9998", "line2": "2 33331  98.1238  69.2693 0002956 235.2987 124.7938 14.64714943924528"}}, "geometry": {"type": "Point", "coordinates": [68.57217181062258, 6.74612081113869]}}, {"type": "Feature", "properties": {"norad_id": 33396, "name": "THEOS", "group": "resource", "lat": 27.556080388125892, "lon": -119.32705438163258, "alt_km": 823.3767050229353, "timestamp": "2025-12-24T09:46:30.652105+00:00", "meta": {"OBJECT_NAME": "THEOS", "OBJECT_ID": "2008-049A", "EPOCH": "2025-12-24T03:59:20.104224", "MEAN_MOTION": 14.20097943, "ECCENTRICITY": 0.0001201, "INCLINATION": 98.5848, "RA_OF_ASC_NODE": 55.918, "ARG_OF_PERICENTER": 94.0025, "MEAN_ANOMALY": 266.1289, "EPHEMERIS_TYPE": 0, "CLASSIFICATION_TYPE": "U", "NORAD_CAT_ID": 33396, "ELEMENT_SET_NO": 999, "REV_AT_EPOCH": 89312, "BSTAR": -3.1427e-05, "MEAN_MOTION_DOT": -1.1e-06, "MEAN_MOTION_DDOT": 0}, "tle": {"line1": "1 33396U 08049A   25358.16620491 -.00000110  00000+0 -31427-4 0  9991", "line2": "2 33396  98.5848  55.9180 0001201  94.0025 266.1289 14.20097943893126"}}, "geometry": {"type": "Point", "coordinates": [-119.32705438163258, 27.556080388125892]}}, {"type": "Feature", "properties": {"norad_id": 33412, "name": "COSMO-SKYMED 3", "group": "resource", "lat": -36.84273951157065, "lon": 23.066312652768687, "alt_km": 555.1758090432131, "timestamp": "2025-12-24T09:46:30.652117+00:00", "meta": {"OBJECT_NAME": "COSMO-SKYMED 3", "OBJECT_ID": "2008-054A", "EPOCH": "2025-12-24T04:01:45.850656", "MEAN_MOTION": 15.05450229, "ECCENTRICITY": 0.0017083, "INCLINATION": 97.8453, "RA_OF_ASC_NODE": 208.7528, "ARG_OF_PERICENTER": 134.3923, "MEAN_ANOMALY": 225.8706, "EPHEMERIS_TYPE": 0, "CLASSIFICATION_TYPE": "U", "NORAD_CAT_ID": 33412, "ELEMENT_SET_NO": 999, "REV_AT_EPOCH": 93059, "BSTAR": 0.00024059, "MEAN_MOTION_DOT": 3.401e-05, "MEAN_MOTION_DDOT": 0}, "tle": {"line1": "1 33412U 08054A   25358.16789179  .00003401  00000+0  24059-3 0  9991", "line2": "2 33412  97.8453 208.7528 0017083 134.3923 225.8706 15.05450229930596"}}, "geometry": {"type": "Point", "coordinates": [23.066312652768687, -36.84273951157065]}}, {"type": "Feature", "properties": {"norad_id": 33446, "name": "YAOGAN-4", "group": "resource", "lat": -33.7811758454586, "lon": -66.2637419640244, "alt_km": 620.4140784652436, "timestamp": "2025-12-24T09:46:30.652130+00:00", "meta": {"OBJECT_NAME": "YAOGAN-4", "OBJECT_ID": "2008-061A", "EPOCH": "2025-12-24T01:49:49.810080", "MEAN_MOTION": 14.82714027, "ECCENTRICITY": 0.0013007, "INCLINATION": 97.9197, "RA_OF_ASC_NODE": 288.0651, "ARG_OF_PERICENTER": 283.1439, "MEAN_ANOMALY": 76.8323, "EPHEMERIS_TYPE": 0, "CLASSIFICATION_TYPE": "U", "NORAD_CAT_ID": 33446, "ELEMENT_SET_NO": 999, "REV_AT_EPOCH": 91971, "BSTAR": 0.00017033, "MEAN_MOTION_DOT": 1.323e-05, "MEAN_MOTION_DDOT": 0}, "tle": {"line1": "1 33446U 08061A   25358.07627095  .00001323  00000+0  17033-3 0  9999", "line2": "2 33446  97.9197 288.0651 0013007 283.1439  76.8323 14.82714027919717"}}, "geometry": {"type": "Point", "coordinates": [-66.2637419640244, -33.7811758454586]}}]}